start=new Date('2022-11-23T00:00:00.000Z').valueOf();
sats=[{"TIME_SYSTEM":"UTC","MEAN_ELEMENT_THEORY":"SGP4","ECCENTRICITY":"0.00017420","MEAN_MOTION_DOT":"0.00001233","TLE_LINE2":"2 45233  53.0559  28.0137 0001742  57.0583 303.0574 15.06395784153750","OBJECT_ID":"2020-012BH","EPHEMERIS_TYPE":"0","ARG_OF_PERICENTER":"57.0583","REF_FRAME":"TEME","FILE":"3667274","CLASSIFICATION_TYPE":"U","SITE":"AFETR","NORAD_CAT_ID":"45233","RA_OF_ASC_NODE":"28.0137","GP_ID":"218469652","ELEMENT_SET_NO":"999","OBJECT_TYPE":"PAYLOAD","APOAPSIS":"548.433","REV_AT_EPOCH":"15375","MEAN_MOTION_DDOT":"0.0000000000000","BSTAR":"0.00010168000000","INCLINATION":"53.0559","CENTER_NAME":"EARTH","MEAN_ANOMALY":"303.0574","PERIOD":"95.592","PERIAPSIS":"546.020","SEMIMAJOR_AXIS":"6925.361","DECAY_DATE":null,"TLE_LINE1":"1 45233U 20012BH  22326.48535890  .00001233  00000-0  10168-3 0  9997","OBJECT_NAME":"STARLINK-1238","LAUNCH_DATE":"2020-02-17","COUNTRY_CODE":"US","RCS_SIZE":"LARGE","MEAN_MOTION":"15.06395784","EPOCH":"2022-11-22T11:38:55.008960"},{"TIME_SYSTEM":"UTC","MEAN_ELEMENT_THEORY":"SGP4","ECCENTRICITY":"0.00012760","MEAN_MOTION_DOT":"-0.00000933","OBJECT_ID":"2020-012BJ","TLE_LINE2":"2 45234  53.0554  46.3640 0001276  83.2946 276.8188 15.06392041153519","EPHEMERIS_TYPE":"0","ARG_OF_PERICENTER":"83.2946","REF_FRAME":"TEME","CLASSIFICATION_TYPE":"U","SITE":"AFETR","FILE":"3667517","NORAD_CAT_ID":"45234","RA_OF_ASC_NODE":"46.3640","OBJECT_TYPE":"PAYLOAD","ELEMENT_SET_NO":"999","GP_ID":"218501028","APOAPSIS":"548.122","BSTAR":"-0.00004377700000","MEAN_MOTION_DDOT":"0.0000000000000","REV_AT_EPOCH":"15351","INCLINATION":"53.0554","MEAN_ANOMALY":"276.8188","PERIOD":"95.593","CENTER_NAME":"EARTH","SEMIMAJOR_AXIS":"6925.373","PERIAPSIS":"546.354","DECAY_DATE":null,"OBJECT_NAME":"STARLINK-1243","LAUNCH_DATE":"2020-02-17","TLE_LINE1":"1 45234U 20012BJ  22326.85579089 -.00000933  00000-0 -43777-4 0  9998","COUNTRY_CODE":"US","RCS_SIZE":"LARGE","MEAN_MOTION":"15.06392041","EPOCH":"2022-11-22T20:32:20.332896"},{"MEAN_MOTION_DOT":"0.00006283","MEAN_ELEMENT_THEORY":"SGP4","ECCENTRICITY":"0.00017600","TIME_SYSTEM":"UTC","ARG_OF_PERICENTER":"57.1000","EPHEMERIS_TYPE":"0","OBJECT_ID":"2020-012BK","TLE_LINE2":"2 45235  53.0568  47.9076 0001760  57.1000 303.0158 15.06412379153511","CLASSIFICATION_TYPE":"U","SITE":"AFETR","FILE":"3667274","REF_FRAME":"TEME","APOAPSIS":"548.394","OBJECT_TYPE":"PAYLOAD","ELEMENT_SET_NO":"999","GP_ID":"218468152","RA_OF_ASC_NODE":"47.9076","NORAD_CAT_ID":"45235","DECAY_DATE":null,"SEMIMAJOR_AXIS":"6925.311","PERIAPSIS":"545.957","PERIOD":"95.591","MEAN_ANOMALY":"303.0158","CENTER_NAME":"EARTH","INCLINATION":"53.0568","MEAN_MOTION_DDOT":"0.0000000000000","BSTAR":"0.00044017000000","REV_AT_EPOCH":"15351","COUNTRY_CODE":"US","LAUNCH_DATE":"2020-02-17","OBJECT_NAME":"STARLINK-1246","TLE_LINE1":"1 45235U 20012BK  22326.50931033  .00006283  00000-0  44017-3 0  9991","EPOCH":"2022-11-22T12:13:24.412512","MEAN_MOTION":"15.06412379","RCS_SIZE":"LARGE"},{"RA_OF_ASC_NODE":"7.9960","NORAD_CAT_ID":"45236","APOAPSIS":"548.414","OBJECT_TYPE":"PAYLOAD","GP_ID":"218468401","ELEMENT_SET_NO":"999","SITE":"AFETR","CLASSIFICATION_TYPE":"U","FILE":"3667274","REF_FRAME":"TEME","EPHEMERIS_TYPE":"0","OBJECT_ID":"2020-012BL","TLE_LINE2":"2 45236  53.0567   7.9960 0001708  57.0516 303.0637 15.06394264154045","ARG_OF_PERICENTER":"57.0516","MEAN_ELEMENT_THEORY":"SGP4","ECCENTRICITY":"0.00017080","TIME_SYSTEM":"UTC","MEAN_MOTION_DOT":"0.00001217","RCS_SIZE":"LARGE","MEAN_MOTION":"15.06394264","EPOCH":"2022-11-22T11:46:52.197024","LAUNCH_DATE":"2020-02-17","OBJECT_NAME":"STARLINK-1247","TLE_LINE1":"1 45236U 20012BL  22326.49088191  .00001217  00000-0  10059-3 0  9999","COUNTRY_CODE":"US","MEAN_ANOMALY":"303.0637","PERIOD":"95.593","CENTER_NAME":"EARTH","REV_AT_EPOCH":"15404","MEAN_MOTION_DDOT":"0.0000000000000","BSTAR":"0.00010059000000","INCLINATION":"53.0567","DECAY_DATE":null,"SEMIMAJOR_AXIS":"6925.366","PERIAPSIS":"546.048"},{"MEAN_MOTION_DDOT":"0.0000000000000","BSTAR":"0.00025952000000","REV_AT_EPOCH":"15409","INCLINATION":"53.0546","CENTER_NAME":"EARTH","PERIOD":"95.592","MEAN_ANOMALY":"299.8394","PERIAPSIS":"546.018","SEMIMAJOR_AXIS":"6925.333","DECAY_DATE":null,"TLE_LINE1":"1 45237U 20012BM  22326.77838662  .00003587  00000-0  25952-3 0  9997","OBJECT_NAME":"STARLINK-1270","LAUNCH_DATE":"2020-02-17","COUNTRY_CODE":"US","MEAN_MOTION":"15.06404978","RCS_SIZE":"LARGE","EPOCH":"2022-11-22T18:40:52.603968","TIME_SYSTEM":"UTC","ECCENTRICITY":"0.00017050","MEAN_ELEMENT_THEORY":"SGP4","MEAN_MOTION_DOT":"0.00003587","TLE_LINE2":"2 45237  53.0546   6.6894 0001705  60.2764 299.8394 15.06404978154094","OBJECT_ID":"2020-012BM","EPHEMERIS_TYPE":"0","ARG_OF_PERICENTER":"60.2764","REF_FRAME":"TEME","FILE":"3667517","SITE":"AFETR","CLASSIFICATION_TYPE":"U","NORAD_CAT_ID":"45237","RA_OF_ASC_NODE":"6.6894","GP_ID":"218500778","ELEMENT_SET_NO":"999","OBJECT_TYPE":"PAYLOAD","APOAPSIS":"548.379"},{"REF_FRAME":"TEME","FILE":"3667517","SITE":"AFETR","CLASSIFICATION_TYPE":"U","ELEMENT_SET_NO":"999","GP_ID":"218501290","OBJECT_TYPE":"PAYLOAD","APOAPSIS":"548.365","NORAD_CAT_ID":"45360","RA_OF_ASC_NODE":"136.5911","MEAN_MOTION_DOT":"0.00001143","TIME_SYSTEM":"UTC","MEAN_ELEMENT_THEORY":"SGP4","ECCENTRICITY":"0.00016360","ARG_OF_PERICENTER":"65.2766","TLE_LINE2":"2 45360  53.0538 136.5911 0001636  65.2766 294.8393 15.06393987148831","OBJECT_ID":"2020-019A","EPHEMERIS_TYPE":"0","EPOCH":"2022-11-22T19:16:43.611456","MEAN_MOTION":"15.06393987","RCS_SIZE":"LARGE","PERIAPSIS":"546.099","SEMIMAJOR_AXIS":"6925.367","DECAY_DATE":null,"MEAN_MOTION_DDOT":"0.0000000000000","REV_AT_EPOCH":"14883","BSTAR":"0.00009563500000","INCLINATION":"53.0538","CENTER_NAME":"EARTH","PERIOD":"95.593","MEAN_ANOMALY":"294.8393","COUNTRY_CODE":"US","TLE_LINE1":"1 45360U 20019A   22326.80328254  .00001143  00000-0  95635-4 0  9998","LAUNCH_DATE":"2020-03-18","OBJECT_NAME":"STARLINK-1279"},{"NORAD_CAT_ID":"45361","RA_OF_ASC_NODE":"146.3483","OBJECT_TYPE":"PAYLOAD","ELEMENT_SET_NO":"999","GP_ID":"218501041","APOAPSIS":"548.250","REF_FRAME":"TEME","SITE":"AFETR","CLASSIFICATION_TYPE":"U","FILE":"3667517","OBJECT_ID":"2020-019B","TLE_LINE2":"2 45361  53.0530 146.3483 0001454  77.1871 282.9281 15.06390428148712","EPHEMERIS_TYPE":"0","ARG_OF_PERICENTER":"77.1871","TIME_SYSTEM":"UTC","MEAN_ELEMENT_THEORY":"SGP4","ECCENTRICITY":"0.00014540","MEAN_MOTION_DOT":"0.00001084","RCS_SIZE":"LARGE","MEAN_MOTION":"15.06390428","EPOCH":"2022-11-22T20:34:59.704608","OBJECT_NAME":"STARLINK-1301","LAUNCH_DATE":"2020-03-18","TLE_LINE1":"1 45361U 20019B   22326.85763547  .00001084  00000-0  91708-4 0  9993","COUNTRY_CODE":"US","MEAN_MOTION_DDOT":"0.0000000000000","BSTAR":"0.00009170800000","REV_AT_EPOCH":"14871","INCLINATION":"53.0530","PERIOD":"95.593","MEAN_ANOMALY":"282.9281","CENTER_NAME":"EARTH","SEMIMAJOR_AXIS":"6925.378","PERIAPSIS":"546.236","DECAY_DATE":null},{"MEAN_MOTION":"15.06398337","RCS_SIZE":"LARGE","EPOCH":"2022-11-22T20:05:48.272064","MEAN_MOTION_DDOT":"0.0000000000000","REV_AT_EPOCH":"14842","BSTAR":"-0.00000131160000","INCLINATION":"53.0543","CENTER_NAME":"EARTH","PERIOD":"95.592","MEAN_ANOMALY":"293.6199","PERIAPSIS":"545.983","SEMIMAJOR_AXIS":"6925.354","DECAY_DATE":null,"TLE_LINE1":"1 45362U 20019C   22326.83736426 -.00000301  00000-0 -13116-5 0  9999","OBJECT_NAME":"STARLINK-1306","LAUNCH_DATE":"2020-03-18","COUNTRY_CODE":"US","REF_FRAME":"TEME","FILE":"3667517","SITE":"AFETR","CLASSIFICATION_TYPE":"U","NORAD_CAT_ID":"45362","RA_OF_ASC_NODE":"166.4459","GP_ID":"218499790","ELEMENT_SET_NO":"999","OBJECT_TYPE":"PAYLOAD","APOAPSIS":"548.454","TIME_SYSTEM":"UTC","MEAN_ELEMENT_THEORY":"SGP4","ECCENTRICITY":"0.00017840","MEAN_MOTION_DOT":"-0.00000301","TLE_LINE2":"2 45362  53.0543 166.4459 0001784  66.4977 293.6199 15.06398337148429","OBJECT_ID":"2020-019C","EPHEMERIS_TYPE":"0","ARG_OF_PERICENTER":"66.4977"},{"REF_FRAME":"TEME","FILE":"3667517","CLASSIFICATION_TYPE":"U","SITE":"AFETR","ELEMENT_SET_NO":"999","GP_ID":"218500039","OBJECT_TYPE":"PAYLOAD","APOAPSIS":"548.319","NORAD_CAT_ID":"45364","RA_OF_ASC_NODE":"136.6038","MEAN_MOTION_DOT":"0.00000865","TIME_SYSTEM":"UTC","ECCENTRICITY":"0.00015470","MEAN_ELEMENT_THEORY":"SGP4","ARG_OF_PERICENTER":"70.9586","TLE_LINE2":"2 45364  53.0535 136.6038 0001547  70.9586 289.1570 15.06388988148836","OBJECT_ID":"2020-019E","EPHEMERIS_TYPE":"0","EPOCH":"2022-11-22T19:11:24.055008","RCS_SIZE":"LARGE","MEAN_MOTION":"15.06388988","PERIAPSIS":"546.176","SEMIMAJOR_AXIS":"6925.382","DECAY_DATE":null,"MEAN_MOTION_DDOT":"0.0000000000000","REV_AT_EPOCH":"14883","BSTAR":"0.00007699900000","INCLINATION":"53.0535","CENTER_NAME":"EARTH","MEAN_ANOMALY":"289.1570","PERIOD":"95.593","COUNTRY_CODE":"US","TLE_LINE1":"1 45364U 20019E   22326.79958397  .00000865  00000-0  76999-4 0  9999","LAUNCH_DATE":"2020-03-18","OBJECT_NAME":"STARLINK-1313"},{"MEAN_MOTION":"15.07813088","RCS_SIZE":"LARGE","EPOCH":"2022-11-22T18:36:02.216160","TLE_LINE1":"1 45365U 20019F   22326.77502565  .00014683  00000-0  96511-3 0  9994","LAUNCH_DATE":"2020-03-18","OBJECT_NAME":"STARLINK-1317","COUNTRY_CODE":"US","CENTER_NAME":"EARTH","MEAN_ANOMALY":"232.6288","PERIOD":"95.503","MEAN_MOTION_DDOT":"0.0000000000000","BSTAR":"0.00096511000000","INCLINATION":"52.9966","REV_AT_EPOCH":"14864","DECAY_DATE":null,"PERIAPSIS":"541.529","SEMIMAJOR_AXIS":"6921.021","RA_OF_ASC_NODE":"146.1968","NORAD_CAT_ID":"45365","APOAPSIS":"544.243","GP_ID":"218500791","ELEMENT_SET_NO":"999","OBJECT_TYPE":"PAYLOAD","FILE":"3667517","SITE":"AFETR","CLASSIFICATION_TYPE":"U","REF_FRAME":"TEME","EPHEMERIS_TYPE":"0","TLE_LINE2":"2 45365  52.9966 146.1968 0001961 127.4879 232.6288 15.07813088148647","OBJECT_ID":"2020-019F","ARG_OF_PERICENTER":"127.4879","ECCENTRICITY":"0.00019610","MEAN_ELEMENT_THEORY":"SGP4","TIME_SYSTEM":"UTC","MEAN_MOTION_DOT":"0.00014683"}];
